{
  "type": "FeatureCollection",
  "features": [
    {
      "type": "Feature",
      "properties": {
        "norad_id": 44793,
        "name": "BEIDOU-3 M22 (C44)",
        "group": "gnss",
        "lat": 32.150757802296994,
        "lon": -27.10114453527527,
        "alt_km": 21507.70335971143,
        "timestamp": "2025-12-27T20:30:59.528311+00:00",
        "meta_object_name": "BEIDOU-3 M22 (C44)",
        "meta_object_id": "2019-078A",
        "meta_epoch": "2025-12-26T04:23:18.195072",
        "meta_mean_motion": 1.86232141,
        "meta_eccentricity": 0.0006121,
        "meta_inclination": 54.096,
        "meta_ra_of_asc_node": 305.9151,
        "meta_arg_of_pericenter": 23.7349,
        "meta_mean_anomaly": 336.3032,
        "meta_ephemeris_type": 0,
        "meta_classification_type": "U",
        "meta_norad_cat_id": 44793,
        "meta_element_set_no": 999,
        "meta_rev_at_epoch": 4142,
        "meta_bstar": 0,
        "meta_mean_motion_dot": -5.6e-07,
        "meta_mean_motion_ddot": 0,
        "tle_line1": "1 44793U 19078A   25360.18284948 -.00000056  00000+0  00000+0 0  9992",
        "tle_line2": "2 44793  54.0960 305.9151 0006121  23.7349 336.3032  1.86232141 41424"
      },
      "geometry": {
        "type": "Point",
        "coordinates": [
          -27.10114453527527,
          32.150757802296994
        ]
      }
    },
    {
      "type": "Feature",
      "properties": {
        "norad_id": 44794,
        "name": "BEIDOU-3 M21 (C43)",
        "group": "gnss",
        "lat": -39.36082046715518,
        "lon": -90.65382959303899,
        "alt_km": 21527.811288342044,
        "timestamp": "2025-12-27T20:30:59.528322+00:00",
        "meta_object_name": "BEIDOU-3 M21 (C43)",
        "meta_object_id": "2019-078B",
        "meta_epoch": "2025-12-25T05:55:32.884896",
        "meta_mean_motion": 1.86227898,
        "meta_eccentricity": 0.0004304,
        "meta_inclination": 54.0703,
        "meta_ra_of_asc_node": 305.9129,
        "meta_arg_of_pericenter": 12.6939,
        "meta_mean_anomaly": 347.3266,
        "meta_ephemeris_type": 0,
        "meta_classification_type": "U",
        "meta_norad_cat_id": 44794,
        "meta_element_set_no": 999,
        "meta_rev_at_epoch": 4141,
        "meta_bstar": 0,
        "meta_mean_motion_dot": -5.3e-07,
        "meta_mean_motion_ddot": 0,
        "tle_line1": "1 44794U 19078B   25359.24690839 -.00000053  00000+0  00000+0 0  9995",
        "tle_line2": "2 44794  54.0703 305.9129 0004304  12.6939 347.3266  1.86227898 41411"
      },
      "geometry": {
        "type": "Point",
        "coordinates": [
          -90.65382959303899,
          -39.36082046715518
        ]
      }
    },
    {
      "type": "Feature",
      "properties": {
        "norad_id": 44850,
        "name": "COSMOS 2544 (759)",
        "group": "gnss",
        "lat": 64.01943669590972,
        "lon": 148.83015201632486,
        "alt_km": 19159.273750124183,
        "timestamp": "2025-12-27T20:30:59.528335+00:00",
        "meta_object_name": "COSMOS 2544 (759)",
        "meta_object_id": "2019-088A",
        "meta_epoch": "2025-12-27T06:42:41.595840",
        "meta_mean_motion": 2.13102058,
        "meta_eccentricity": 0.001444,
        "meta_inclination": 65.467,
        "meta_ra_of_asc_node": 79.4725,
        "meta_arg_of_pericenter": 250.8166,
        "meta_mean_anomaly": 109.0715,
        "meta_ephemeris_type": 0,
        "meta_classification_type": "U",
        "meta_norad_cat_id": 44850,
        "meta_element_set_no": 999,
        "meta_rev_at_epoch": 4705,
        "meta_bstar": 0,
        "meta_mean_motion_dot": -1.2e-07,
        "meta_mean_motion_ddot": 0,
        "tle_line1": "1 44850U 19088A   25361.27964810 -.00000012  00000+0  00000+0 0  9993",
        "tle_line2": "2 44850  65.4670  79.4725 0014440 250.8166 109.0715  2.13102058 47057"
      },
      "geometry": {
        "type": "Point",
        "coordinates": [
          148.83015201632486,
          64.01943669590972
        ]
      }
    },
    {
      "type": "Feature",
      "properties": {
        "norad_id": 44864,
        "name": "BEIDOU-3 M19 (C41)",
        "group": "gnss",
        "lat": 29.12761844933448,
        "lon": -133.23631032535752,
        "alt_km": 21564.63789964365,
        "timestamp": "2025-12-27T20:30:59.528347+00:00",
        "meta_object_name": "BEIDOU-3 M19 (C41)",
        "meta_object_id": "2019-090A",
        "meta_epoch": "2025-12-27T02:26:46.358016",
        "meta_mean_motion": 1.86231443,
        "meta_eccentricity": 0.0018509,
        "meta_inclination": 56.4046,
        "meta_ra_of_asc_node": 68.4857,
        "meta_arg_of_pericenter": 285.4212,
        "meta_mean_anomaly": 74.1614,
        "meta_ephemeris_type": 0,
        "meta_classification_type": "U",
        "meta_norad_cat_id": 44864,
        "meta_element_set_no": 999,
        "meta_rev_at_epoch": 4102,
        "meta_bstar": 0,
        "meta_mean_motion_dot": -3.5e-07,
        "meta_mean_motion_ddot": 0,
        "tle_line1": "1 44864U 19090A   25361.10192544 -.00000035  00000+0  00000+0 0  9995",
        "tle_line2": "2 44864  56.4046  68.4857 0018509 285.4212  74.1614  1.86231443 41020"
      },
      "geometry": {
        "type": "Point",
        "coordinates": [
          -133.23631032535752,
          29.12761844933448
        ]
      }
    },
    {
      "type": "Feature",
      "properties": {
        "norad_id": 44865,
        "name": "BEIDOU-3 M20 (C42)",
        "group": "gnss",
        "lat": -42.264043924389284,
        "lon": -74.383141220258,
        "alt_km": 21513.57133764639,
        "timestamp": "2025-12-27T20:30:59.528358+00:00",
        "meta_object_name": "BEIDOU-3 M20 (C42)",
        "meta_object_id": "2019-090B",
        "meta_epoch": "2025-12-27T12:01:33.425184",
        "meta_mean_motion": 1.86231363,
        "meta_eccentricity": 0.0015689,
        "meta_inclination": 56.4065,
        "meta_ra_of_asc_node": 68.5068,
        "meta_arg_of_pericenter": 297.5261,
        "meta_mean_anomaly": 59.2827,
        "meta_ephemeris_type": 0,
        "meta_classification_type": "U",
        "meta_norad_cat_id": 44865,
        "meta_element_set_no": 999,
        "meta_rev_at_epoch": 4101,
        "meta_bstar": 0,
        "meta_mean_motion_dot": -3.8e-07,
        "meta_mean_motion_ddot": 0,
        "tle_line1": "1 44865U 19090B   25361.50108131 -.00000038  00000+0  00000+0 0  9992",
        "tle_line2": "2 44865  56.4065  68.5068 0015689 297.5261  59.2827  1.86231363 41011"
      },
      "geometry": {
        "type": "Point",
        "coordinates": [
          -74.383141220258,
          -42.264043924389284
        ]
      }
    },
    {
      "type": "Feature",
      "properties": {
        "norad_id": 45344,
        "name": "BEIDOU-3 G2 (C60)",
        "group": "gnss",
        "lat": 2.50241933670091,
        "lon": 124.34710946931503,
        "alt_km": 35794.28289202831,
        "timestamp": "2025-12-27T20:30:59.528369+00:00",
        "meta_object_name": "BEIDOU-3 G2 (C60)",
        "meta_object_id": "2020-017A",
        "meta_epoch": "2025-12-27T09:57:30.305376",
        "meta_mean_motion": 1.00271727,
        "meta_eccentricity": 0.0002185,
        "meta_inclination": 2.5226,
        "meta_ra_of_asc_node": 44.1676,
        "meta_arg_of_pericenter": 236.9543,
        "meta_mean_anomaly": 44.4455,
        "meta_ephemeris_type": 0,
        "meta_classification_type": "U",
        "meta_norad_cat_id": 45344,
        "meta_element_set_no": 999,
        "meta_rev_at_epoch": 2153,
        "meta_bstar": 0,
        "meta_mean_motion_dot": -1.19e-06,
        "meta_mean_motion_ddot": 0,
        "tle_line1": "1 45344U 20017A   25361.41493409 -.00000119  00000+0  00000+0 0  9991",
        "tle_line2": "2 45344   2.5226  44.1676 0002185 236.9543  44.4455  1.00271727 21539"
      },
      "geometry": {
        "type": "Point",
        "coordinates": [
          124.34710946931503,
          2.50241933670091
        ]
      }
    },
    {
      "type": "Feature",
      "properties": {
        "norad_id": 45358,
        "name": "COSMOS 2545 (760)",
        "group": "gnss",
        "lat": -57.31653975025462,
        "lon": -89.70721375333481,
        "alt_km": 19114.15462300904,
        "timestamp": "2025-12-27T20:30:59.528381+00:00",
        "meta_object_name": "COSMOS 2545 (760)",
        "meta_object_id": "2020-018A",
        "meta_epoch": "2025-12-27T00:08:46.380768",
        "meta_mean_motion": 2.13102633,
        "meta_eccentricity": 0.00112617,
        "meta_inclination": 64.4611,
        "meta_ra_of_asc_node": 318.4699,
        "meta_arg_of_pericenter": 250.7863,
        "meta_mean_anomaly": 109.0965,
        "meta_ephemeris_type": 0,
        "meta_classification_type": "U",
        "meta_norad_cat_id": 45358,
        "meta_element_set_no": 999,
        "meta_rev_at_epoch": 4499,
        "meta_bstar": 0,
        "meta_mean_motion_dot": -3.8e-07,
        "meta_mean_motion_ddot": 0,
        "tle_line1": "1 45358U 20018A   25361.00609237 -.00000038  00000+0  00000+0 0  9990",
        "tle_line2": "2 45358  64.4611 318.4699 0011261 250.7863 109.0965  2.13102633 44998"
      },
      "geometry": {
        "type": "Point",
        "coordinates": [
          -89.70721375333481,
          -57.31653975025462
        ]
      }
    }
  ]
}